NORAD_CAT_ID,OBJECT_NAME,OBJECT_TYPE,EPOCH,MEAN_MOTION,ECCENTRICITY,INCLINATION,RA_OF_ASC_NODE,ARG_OF_PERICENTER,MEAN_ANOMALY,BSTAR,MEAN_MOTION_DOT,MEAN_MOTION_DDOT,TLE_LINE0,TLE_LINE1,TLE_LINE2,SEMIMAJOR_AXIS,PERIOD,APOGEE,PERIGEE,DECAYED
52371.0,STARLINK-3798,PAYLOAD,2022-05-04 18:00:02,15.84106199,0.000101,53.2177,52.3928,69.9037,348.0039,-0.0042173,-0.00877453,0.0,0 STARLINK-3798,1 52371U 22045AS  22124.75002315 -.00877453  00000-0 -42173-2 0  9990,2 52371  53.2177  52.3928 0001010  69.9037 348.0039 15.84106199  3307,6696.98,90.903,319.521,318.168,0.0
52371.0,STARLINK-3798,PAYLOAD,2022-05-05 14:00:01,15.82531734,0.0001065,53.2174,48.2073,72.2704,58.2741,-0.0045293999999999,-0.00874504,0.0,0 STARLINK-3798,1 52371U 22045AS  22125.58334491 -.00874504  00000-0 -45294-2 0  9996,2 52371  53.2174  48.2073 0001065  72.2704  58.2741 15.82531734  3436,6701.420999999999,90.993,324.0,322.572,0.0
52371.0,STARLINK-3798,PAYLOAD,2022-05-05 22:00:00,15.81904562,0.0001154,53.2176,46.5363,82.3911,147.9101,-0.0046861,-0.00878045,0.0,0 STARLINK-3798,1 52371U 22045AS  22125.91667824 -.00878045  00000-0 -46861-2 0  9997,2 52371  53.2176  46.5363 0001154  82.3911 147.9101 15.81904562  1483,6703.191999999999,91.03,325.83,324.283,0.0
52371.0,STARLINK-3798,PAYLOAD,2022-05-06 08:00:01,15.81056396,0.0001008,53.2163,44.4504,83.3148,0.65,-0.0043764,-0.00795741,0.0,0 STARLINK-3798,1 52371U 22045AS  22126.33334491 -.00795741  00000-0 -43764-2 0  9995,2 52371  53.2163  44.4504 0001008  83.3148   0.6500 15.81056396  3555,6705.589,91.078,328.13,326.778,0.0
52371.0,STARLINK-3798,PAYLOAD,2022-05-06 14:00:01,15.80643529,9.52e-05,53.2176,43.1969,90.481,337.0689,-0.0049435,-0.00873652,0.0,0 STARLINK-3798,1 52371U 22045AS  22126.58334491 -.00873652  00000-0 -49435-2 0  9991,2 52371  53.2176  43.1969 0000952  90.4810 337.0689 15.80643529  1598,6706.757,91.102,329.26,327.983,0.0
52371.0,STARLINK-3798,PAYLOAD,2022-05-06 22:00:00,15.8001531,0.0001155,53.2177,41.5306,80.6754,84.3622,-0.0050985,-0.0087514,0.0,0 STARLINK-3798,1 52371U 22045AS  22126.91667824 -.00875140  00000-0 -50985-2 0  9993,2 52371  53.2177  41.5306 0001155  80.6754  84.3622 15.80015310  3648,6708.534000000002,91.138,331.1740000000001,329.624,0.0
52371.0,STARLINK-3798,PAYLOAD,2022-05-07 14:00:01,15.78755539,9.27e-05,53.2173,38.2003,93.8297,263.91900000000004,-0.0053879,-0.00873048,0.0,0 STARLINK-3798,1 52371U 22045AS  22127.58334491 -.00873048  00000-0 -53879-2 0  9998,2 52371  53.2173  38.2003 0000927  93.8297 263.9190 15.78755539  1751,6712.103,91.211,334.59,333.345,0.0
52371.0,STARLINK-3798,PAYLOAD,2022-05-07 20:00:01,15.782875099999998,0.0001023,53.2175,36.9537,100.5754,238.6573,-0.0055434,-0.00878764,0.0,0 STARLINK-3798,1 52371U 22045AS  22127.83334491 -.00878764  00000-0 -55434-2 0  9995,2 52371  53.2175  36.9537 0001023 100.5754 238.6573 15.78287510  3780,6713.429,91.238,335.981,334.608,0.0
52371.0,STARLINK-3798,PAYLOAD,2022-05-07 22:00:00,15.78127937,0.0001031,53.2173,36.5391,86.6727,6.2946,-0.0055597,-0.00875358,0.0,0 STARLINK-3798,1 52371U 22045AS  22127.91667824 -.00875358  00000-0 -55597-2 0  9999,2 52371  53.2173  36.5391 0001031  86.6727   6.2946 15.78127937  1805,6713.882,91.247,336.439,335.055,0.0
52371.0,STARLINK-3798,PAYLOAD,2022-05-08 14:00:01,15.76868202,0.0001087,53.2175,33.2177,101.9072,179.2336,-0.0058669,-0.00873067,0.0,0 STARLINK-3798,1 52371U 22045AS  22128.58334491 -.00873067  00000-0 -58669-2 0  9992,2 52371  53.2175  33.2177 0001087 101.9072 179.2336 15.76868202  1908,6717.456999999999,91.32,340.052,338.592,0.0
52371.0,STARLINK-3798,PAYLOAD,2022-05-08 20:00:01,15.76398132,0.0001157,53.2178,31.9749,99.2477,161.6767,-0.0060126999999999,-0.00875909,0.0,0 STARLINK-3798,1 52371U 22045AS  22128.83334491 -.00875909  00000-0 -60127-2 0  9999,2 52371  53.2178  31.9749 0001157  99.2477 161.6767 15.76398132  3946,6718.793000000002,91.347,341.435,339.88,0.0
52371.0,STARLINK-3798,PAYLOAD,2022-05-08 22:00:00,15.76241008,9.8e-05,53.2177,31.5612,93.9507,280.1408,-0.0060581,-0.00876273,0.0,0 STARLINK-3798,1 52371U 22045AS  22128.91667824 -.00876273  00000-0 -60581-2 0  9996,2 52371  53.2177  31.5612 0000980  93.9507 280.1408 15.76241008  1966,6719.239000000001,91.357,341.7630000000001,340.446,0.0
52371.0,STARLINK-3798,PAYLOAD,2022-05-09 14:00:01,15.74980674,0.0001146,53.2171,28.2489,94.9379,102.8554,-0.0063779,-0.00872951,0.0,0 STARLINK-3798,1 52371U 22045AS  22129.58335648 -.00872951  00000-0 -63779-2 0  9997,2 52371  53.2171  28.2489 0001146  94.9379 102.8554 15.74980674  2069,6722.823,91.43,345.459,343.918,0.0
52371.0,STARLINK-3798,PAYLOAD,2022-05-09 22:00:00,15.74351713,0.0001133,53.2173,26.5974,97.6893,190.7207,-0.0065624,-0.00873707,0.0,0 STARLINK-3798,1 52371U 22045AS  22129.91667824 -.00873707  00000-0 -65624-2 0  9999,2 52371  53.2173  26.5974 0001133  97.6893 190.7207 15.74351713  2122,6724.614000000001,91.466,347.24,345.717,0.0
52371.0,STARLINK-3798,PAYLOAD,2022-05-10 00:00:00,15.74197394,9.9e-05,53.2173,26.1848,91.3636,309.5982,-0.0066542,-0.00879329,0.0,0 STARLINK-3798,1 52371U 22045AS  22130.00001157 -.00879329  00000-0 -66542-2 0  9998,2 52371  53.2173  26.1848 0000990  91.3636 309.5982 15.74197394  4129,6725.053000000001,91.475,347.584,346.25199999999984,0.0
52371.0,STARLINK-3798,PAYLOAD,2022-05-10 14:00:01,15.73205152,0.0001072,53.2173,23.2941,104.4819,3.0425,-1.4428e-05,-2.644e-05,0.0,0 STARLINK-3798,1 52371U 22045AS  22130.58334491 -.00002644  00000-0 -14428-4 0  9997,2 52371  53.2173  23.2941 0001072 104.4819   3.0425 15.73205152  4222,6727.88,91.533,350.467,349.024,0.0
52371.0,STARLINK-3798,PAYLOAD,2022-05-10 18:00:00,15.73191301,0.0001574,53.2146,22.4712,102.3531,229.6563,0.00027161,0.00037656,0.0,0 STARLINK-3798,1 52371U 22045AS  22130.75001157  .00037656  00000-0  27161-3 0  9992,2 52371  53.2146  22.4712 0001574 102.3531 229.6563 15.73191301  2254,6727.92,91.534,350.844,348.726,0.0
52371.0,STARLINK-3798,PAYLOAD,2022-05-11 22:00:00,15.73266466,0.0001087,53.2129,16.7003,104.1468,359.2402,-0.00067065,-0.00093961,0.0,0 STARLINK-3798,1 52371U 22045AS  22131.91667824 -.00093961  00000-0 -67065-3 0  9990,2 52371  53.2129  16.7003 0001087 104.1468 359.2402 15.73266466  4431,6727.706,91.529,350.302,348.839,0.0
52371.0,STARLINK-3798,PAYLOAD,2022-05-12 04:00:00,15.73185665,9.07e-05,53.2129,15.4635,99.6909,340.4439,0.00063173,0.00088927,0.0,0 STARLINK-3798,1 52371U 22045AS  22132.16667824  .00088927  00000-0  63173-3 0  9998,2 52371  53.2129  15.4635 0000907  99.6909 340.4439 15.73185665  4473,6727.936,91.534,350.411,349.191,0.0
52371.0,STARLINK-3798,PAYLOAD,2022-05-12 14:00:01,15.73237346,0.0001136,53.2131,13.399,111.4678,169.888,-0.00010485,-0.00015331,0.0,0 STARLINK-3798,1 52371U 22045AS  22132.58334491 -.00015331  00000-0 -10485-3 0  9994,2 52371  53.2131  13.3990 0001136 111.4678 169.8880 15.73237346  1304,6727.7890000000025,91.531,350.418,348.889,0.0
52371.0,STARLINK-3798,PAYLOAD,2022-05-12 20:00:01,15.73265389,9.66e-05,53.2132,12.1632,108.6976,149.3677,-0.00061544,-0.00086349,0.0,0 STARLINK-3798,1 52371U 22045AS  22132.83334491 -.00086349  00000-0 -61544-3 0  9991,2 52371  53.2132  12.1632 0000966 108.6976 149.3677 15.73265389  4571,6727.709,91.529,350.224,348.9240000000001,0.0
52371.0,STARLINK-3798,PAYLOAD,2022-05-12 22:00:00,15.73232624,9.19e-05,53.2132,11.7512,104.8789,265.4406,-0.00028758,-0.00040839,0.0,0 STARLINK-3798,1 52371U 22045AS  22132.91667824 -.00040839  00000-0 -28758-3 0  9993,2 52371  53.2132  11.7512 0000919 104.8789 265.4406 15.73232624  1305,6727.802,91.531,350.285,349.0490000000001,0.0
52371.0,STARLINK-3798,PAYLOAD,2022-05-13 14:00:01,15.73203609,0.0001141,53.2138,8.4503,115.5969,72.5717,-0.00026927,-0.00038243,0.0,0 STARLINK-3798,1 52371U 22045AS  22133.58334491 -.00038243  00000-0 -26927-3 0  9990,2 52371  53.2138   8.4503 0001141 115.5969  72.5717 15.73203609  4699,6727.885,91.533,350.51800000000014,348.982,0.0
52371.0,STARLINK-3798,PAYLOAD,2022-05-13 22:00:00,15.73153049,0.0001232,53.2148,6.8028,101.3052,175.787,0.00019001,0.00026076,0.0,0 STARLINK-3798,1 52371U 22045AS  22133.91667824  .00026076  00000-0  19001-3 0  9990,2 52371  53.2148   6.8028 0001232 101.3052 175.7870 15.73153049  1304,6728.029,91.536,350.723,349.065,0.0
52371.0,STARLINK-3798,PAYLOAD,2022-05-14 06:00:00,15.73209748,0.0001240999999999,53.2144,5.1529,101.7072,264.3135,-0.00033542,-0.00047448,0.0,0 STARLINK-3798,1 52371U 22045AS  22134.25001157 -.00047448  00000-0 -33542-3 0  9993,2 52371  53.2144   5.1529 0001241 101.7072 264.3135 15.73209748  4797,6727.8669999999975,91.533,350.56699999999995,348.897,0.0
52371.0,STARLINK-3798,PAYLOAD,2022-05-14 14:00:01,15.73171845,0.0001408,53.2147,3.5016,109.3292,345.6154,0.00070661,0.00099611,0.0,0 STARLINK-3798,1 52371U 22045AS  22134.58334491  .00099611  00000-0  70661-3 0  9999,2 52371  53.2147   3.5016 0001408 109.3292 345.6154 15.73171845  4853,6727.975,91.535,350.788,348.89300000000014,0.0
52371.0,STARLINK-3798,PAYLOAD,2022-05-14 22:00:00,15.73265408,0.0001351999999999,53.2145,1.8538,100.6877,83.1888,-0.00033981,-0.00048171,0.0,0 STARLINK-3798,1 52371U 22045AS  22134.91667824 -.00048171  00000-0 -33981-3 0  9996,2 52371  53.2145   1.8538 0001352 100.6877  83.1888 15.73265408  1306,6727.709,91.529,350.483,348.664,0.0
52371.0,STARLINK-3798,PAYLOAD,2022-05-15 06:00:00,15.73265219,0.0001069,53.2136,0.2037,105.8753,167.0031,-0.00077651,-0.00108502,0.0,0 STARLINK-3798,1 52371U 22045AS  22135.25001157 -.00108502  00000-0 -77651-3 0  9992,2 52371  53.2136   0.2037 0001069 105.8753 167.0031 15.73265219  4954,6727.709,91.529,350.293,348.855,0.0
52371.0,STARLINK-3798,PAYLOAD,2022-05-15 14:00:01,15.73158979,0.0001131,53.2139,358.5526,119.6045,242.308,0.00029878,0.00041445,0.0,0 STARLINK-3798,1 52371U 22045AS  22135.58335648  .00041445  00000-0  29878-3 0  9991,2 52371  53.2139 358.5526 0001131 119.6045 242.3080 15.73158979  1318,6728.012,91.536,350.63800000000015,349.116,0.0
